{
  "norad_id": 62432,
  "name": "STARLINK-32702",
  "history": [
    {
      "epoch": "2026-04-15T10:17:34.476000Z",
      "apogee_km": 475.98014448527556,
      "perigee_km": 474.4358117279089,
      "latitude_deg": -3.2553006937202486e-05,
      "longitude_deg": 163.80805468506858,
      "height_km": 475.90711674283466,
      "semi_major_axis_km": 6853.344978106592,
      "eccentricity": 0.00011267,
      "inclination_deg": 53.1593,
      "raan_deg": 161.7928,
      "arg_perigee_deg": 75.0564,
      "mean_anomaly_deg": 285.0561,
      "mean_motion_rev_day": 15.30202375
    },
    {
      "epoch": "2026-04-16T20:46:44.708736Z",
      "apogee_km": 476.07131141047375,
      "perigee_km": 474.35523250237475,
      "latitude_deg": 5.0986586738384986e-05,
      "longitude_deg": -1.5747136056932958,
      "height_km": 476.021086659032,
      "semi_major_axis_km": 6853.350271956424,
      "eccentricity": 0.0001252,
      "inclination_deg": 53.1598,
      "raan_deg": 155.1189,
      "arg_perigee_deg": 83.9612,
      "mean_anomaly_deg": 276.1532,
      "mean_motion_rev_day": 15.30200602
    },
    {
      "epoch": "2026-04-17T09:19:10.351200Z",
      "apogee_km": 476.1277698646709,
      "perigee_km": 474.2866874710817,
      "latitude_deg": 4.216656248213331e-05,
      "longitude_deg": 167.3760186880446,
      "height_km": 476.0634463793338,
      "semi_major_axis_km": 6853.344228667876,
      "eccentricity": 0.00013432,
      "inclination_deg": 53.1604,
      "raan_deg": 152.6915,
      "arg_perigee_deg": 87.3976,
      "mean_anomaly_deg": 272.7179,
      "mean_motion_rev_day": 15.30202626
    },
    {
      "epoch": "2026-04-18T19:48:20.051712Z",
      "apogee_km": 475.191777383925,
      "perigee_km": 475.10131404112053,
      "latitude_deg": 9.243931395370683e-06,
      "longitude_deg": 1.9937852197649628,
      "height_km": 476.0271738503722,
      "semi_major_axis_km": 6853.283545712522,
      "eccentricity": 6.6e-06,
      "inclination_deg": 53.1605,
      "raan_deg": 146.016,
      "arg_perigee_deg": 295.1327,
      "mean_anomaly_deg": 64.9667,
      "mean_motion_rev_day": 15.3022295
    },
    {
      "epoch": "2026-04-19T19:19:08.314176Z",
      "apogee_km": 475.3255271952594,
      "perigee_km": 475.1158144505307,
      "latitude_deg": -6.371791076868265e-05,
      "longitude_deg": 3.7772749672706243,
      "height_km": 476.0935211530102,
      "semi_major_axis_km": 6853.357670822895,
      "eccentricity": 1.53e-05,
      "inclination_deg": 53.161,
      "raan_deg": 141.4663,
      "arg_perigee_deg": 285.0041,
      "mean_anomaly_deg": 75.0942,
      "mean_motion_rev_day": 15.30198124
    },
    {
      "epoch": "2026-04-20T10:59:40.783488Z",
      "apogee_km": 475.96775242076455,
      "perigee_km": 474.48194357211923,
      "latitude_deg": 1.8661239534373822e-06,
      "longitude_deg": 124.96485622505882,
      "height_km": 475.99369933192014,
      "semi_major_axis_km": 6853.361847996442,
      "eccentricity": 0.0001084,
      "inclination_deg": 53.1576,
      "raan_deg": 138.4329,
      "arg_perigee_deg": 79.9814,
      "mean_anomaly_deg": 280.1309,
      "mean_motion_rev_day": 15.30196725
    },
    {
      "epoch": "2026-04-21T08:56:26.109888Z",
      "apogee_km": 475.9400891049281,
      "perigee_km": 474.5155486936719,
      "latitude_deg": -5.072922942945633e-05,
      "longitude_deg": 150.6250677904397,
      "height_km": 476.0899311842343,
      "semi_major_axis_km": 6853.364818899299,
      "eccentricity": 0.00010393,
      "inclination_deg": 53.1584,
      "raan_deg": 134.1833,
      "arg_perigee_deg": 87.0939,
      "mean_anomaly_deg": 273.018,
      "mean_motion_rev_day": 15.3019573
    },
    {
      "epoch": "2026-04-22T17:51:33.435072Z",
      "apogee_km": 475.8077627440107,
      "perigee_km": 474.5864986019251,
      "latitude_deg": 3.883164478553227e-05,
      "longitude_deg": 9.121686439485833,
      "height_km": 475.7656589653165,
      "semi_major_axis_km": 6853.334130672967,
      "eccentricity": 8.91e-05,
      "inclination_deg": 53.159,
      "raan_deg": 127.8123,
      "arg_perigee_deg": 57.2722,
      "mean_anomaly_deg": 302.8365,
      "mean_motion_rev_day": 15.30206008
    },
    {
      "epoch": "2026-04-23T06:23:58.887456Z",
      "apogee_km": 476.1252214202468,
      "perigee_km": 474.24741083162735,
      "latitude_deg": -3.92130386666968e-05,
      "longitude_deg": 178.07765952578035,
      "height_km": 475.9693616471938,
      "semi_major_axis_km": 6853.323316125937,
      "eccentricity": 0.000137,
      "inclination_deg": 53.1584,
      "raan_deg": 125.3894,
      "arg_perigee_deg": 82.9802,
      "mean_anomaly_deg": 277.1354,
      "mean_motion_rev_day": 15.3020963
    },
    {
      "epoch": "2026-04-24T07:28:49.017216Z",
      "apogee_km": 475.8806873098838,
      "perigee_km": 474.5127618984525,
      "latitude_deg": -1.4421175327872132e-05,
      "longitude_deg": 155.982779116846,
      "height_km": 475.78072598211565,
      "semi_major_axis_km": 6853.333724604167,
      "eccentricity": 9.98e-05,
      "inclination_deg": 53.1575,
      "raan_deg": 120.5334,
      "arg_perigee_deg": 62.6404,
      "mean_anomaly_deg": 297.4698,
      "mean_motion_rev_day": 15.30206144
    },
    {
      "epoch": "2026-04-25T11:41:46.607136Z",
      "apogee_km": 475.94876028427643,
      "perigee_km": 474.4848839078768,
      "latitude_deg": 2.7192170778220284e-05,
      "longitude_deg": 86.1247616448219,
      "height_km": 476.17633920872237,
      "semi_major_axis_km": 6853.353822096076,
      "eccentricity": 0.0001068,
      "inclination_deg": 53.158,
      "raan_deg": 115.0741,
      "arg_perigee_deg": 94.8107,
      "mean_anomaly_deg": 265.3016,
      "mean_motion_rev_day": 15.30199413
    },
    {
      "epoch": "2026-04-26T09:38:31.255296Z",
      "apogee_km": 475.97316672930174,
      "perigee_km": 474.44624108367134,
      "latitude_deg": 3.681427111501188e-08,
      "longitude_deg": 111.79012826952214,
      "height_km": 476.05281027937485,
      "semi_major_axis_km": 6853.346703906486,
      "eccentricity": 0.0001114,
      "inclination_deg": 53.1576,
      "raan_deg": 110.8268,
      "arg_perigee_deg": 85.8742,
      "mean_anomaly_deg": 274.2386,
      "mean_motion_rev_day": 15.30201797
    },
    {
      "epoch": "2026-04-27T06:01:11.402688Z",
      "apogee_km": 475.91110905898677,
      "perigee_km": 474.60074033178444,
      "latitude_deg": -3.249396613843114e-05,
      "longitude_deg": 161.3411364922521,
      "height_km": 476.23614699766927,
      "semi_major_axis_km": 6853.392924695385,
      "eccentricity": 9.56e-05,
      "inclination_deg": 53.1583,
      "raan_deg": 106.882,
      "arg_perigee_deg": 97.1808,
      "mean_anomaly_deg": 262.9301,
      "mean_motion_rev_day": 15.30186317
    },
    {
      "epoch": "2026-04-28T08:40:07.190976Z",
      "apogee_km": 475.90732126109015,
      "perigee_km": 474.5873594371378,
      "latitude_deg": 1.6427627463530726e-05,
      "longitude_deg": 115.35739405210144,
      "height_km": 476.1915064682785,
      "semi_major_axis_km": 6853.384340349114,
      "eccentricity": 9.63e-05,
      "inclination_deg": 53.1587,
      "raan_deg": 101.7251,
      "arg_perigee_deg": 93.9811,
      "mean_anomaly_deg": 266.13,
      "mean_motion_rev_day": 15.30189192
    },
    {
      "epoch": "2026-04-29T05:02:48.928992Z",
      "apogee_km": 475.9894640993389,
      "perigee_km": 474.41456679358816,
      "latitude_deg": 2.9705656025684762e-05,
      "longitude_deg": 164.9001906277383,
      "height_km": 476.18545792572587,
      "semi_major_axis_km": 6853.339015446463,
      "eccentricity": 0.0001149,
      "inclination_deg": 53.1596,
      "raan_deg": 97.7787,
      "arg_perigee_deg": 96.2144,
      "mean_anomaly_deg": 263.8988,
      "mean_motion_rev_day": 15.30204372
    },
    {
      "epoch": "2026-04-30T07:41:43.291680Z",
      "apogee_km": 476.09193792935366,
      "perigee_km": 474.3189782354484,
      "latitude_deg": 9.892276564604937e-06,
      "longitude_deg": 118.92415241756578,
      "height_km": 475.8752083713248,
      "semi_major_axis_km": 6853.342458082401,
      "eccentricity": 0.00012935,
      "inclination_deg": 53.1592,
      "raan_deg": 92.6236,
      "arg_perigee_deg": 75.0781,
      "mean_anomaly_deg": 285.0363,
      "mean_motion_rev_day": 15.30203219
    },
    {
      "epoch": "2026-05-02T05:09:14.942592Z",
      "apogee_km": 476.1102623325778,
      "perigee_km": 474.14063470487326,
      "latitude_deg": -1.8225901222678278e-05,
      "longitude_deg": 146.37702428144104,
      "height_km": 475.90779590440627,
      "semi_major_axis_km": 6853.262448518725,
      "eccentricity": 0.0001437,
      "inclination_deg": 53.1593,
      "raan_deg": 83.8253,
      "arg_perigee_deg": 83.2676,
      "mean_anomaly_deg": 276.8488,
      "mean_motion_rev_day": 15.30230016
    },
    {
      "epoch": "2026-05-03T14:04:22.787040Z",
      "apogee_km": 476.52481391920264,
      "perigee_km": 473.96164971250346,
      "latitude_deg": -2.6616329274440654e-05,
      "longitude_deg": 4.868600362714871,
      "height_km": 476.040139427617,
      "semi_major_axis_km": 6853.380231815853,
      "eccentricity": 0.000187,
      "inclination_deg": 53.1611,
      "raan_deg": 77.4515,
      "arg_perigee_deg": 85.5046,
      "mean_anomaly_deg": 274.6168,
      "mean_motion_rev_day": 15.30190568
    },
    {
      "epoch": "2026-05-04T13:35:11.211072Z",
      "apogee_km": 476.0730672166592,
      "perigee_km": 474.38713890930467,
      "latitude_deg": 4.659531256117272e-05,
      "longitude_deg": 6.65162171676468,
      "height_km": 476.0795431223161,
      "semi_major_axis_km": 6853.367103062981,
      "eccentricity": 0.000123,
      "inclination_deg": 53.1603,
      "raan_deg": 72.9019,
      "arg_perigee_deg": 86.6869,
      "mean_anomaly_deg": 273.4273,
      "mean_motion_rev_day": 15.30194965
    }
  ]
}